[{"OBJECT_NAME":"STARLINK-3068","OBJECT_ID":"2021-082AA","EPOCH":"2026-03-09T22:14:55.374720","MEAN_MOTION":14.97526168,"ECCENTRICITY":0.00029956,"INCLINATION":69.998,"RA_OF_ASC_NODE":274.6307,"ARG_OF_PERICENTER":267.5766,"MEAN_ANOMALY":92.505,"EPHEMERIS_TYPE":0,"CLASSIFICATION_TYPE":"U","NORAD_CAT_ID":49154,"ELEMENT_SET_NO":999,"REV_AT_EPOCH":24756,"BSTAR":8.07279e-5,"MEAN_MOTION_DOT":8.51e-6,"MEAN_MOTION_DDOT":0},{"OBJECT_NAME":"COSMOS 374 DEB","OBJECT_ID":"1970-089H","EPOCH":"2026-03-09T12:27:41.883264","MEAN_MOTION":13.59474503,"ECCENTRICITY":0.06426222,"INCLINATION":62.9221,"RA_OF_ASC_NODE":68.1933,"ARG_OF_PERICENTER":199.9559,"MEAN_ANOMALY":157.5262,"EPHEMERIS_TYPE":0,"CLASSIFICATION_TYPE":"U","NORAD_CAT_ID":4621,"ELEMENT_SET_NO":999,"REV_AT_EPOCH":66798,"BSTAR":0.00036640968,"MEAN_MOTION_DOT":9.73e-6,"MEAN_MOTION_DDOT":0}]
